{"type": "FeatureCollection", "features": [{"type": "Feature", "properties": {"norad_id": 2807, "name": "OPS 7218 (TRANSIT 16)", "group": "nnss", "lat": -16.305020483361993, "lon": 173.78131444098562, "alt_km": 1079.6923559803154, "timestamp": "2025-12-22T16:55:17.731476+00:00", "meta": {"OBJECT_NAME": "OPS 7218 (TRANSIT 16)", "OBJECT_ID": "1967-048A", "EPOCH": "2025-12-22T07:07:30.399168", "MEAN_MOTION": 13.50724279, "ECCENTRICITY": 0.0022163, "INCLINATION": 89.6731, "RA_OF_ASC_NODE": 353.6991, "ARG_OF_PERICENTER": 88.6181, "MEAN_ANOMALY": 283.6624, "EPHEMERIS_TYPE": 0, "CLASSIFICATION_TYPE": "U", "NORAD_CAT_ID": 2807, "ELEMENT_SET_NO": 999, "REV_AT_EPOCH": 88405, "BSTAR": 0.00015663872, "MEAN_MOTION_DOT": 1.11e-06, "MEAN_MOTION_DDOT": 0}, "tle": {"line1": "1 02807U 67048A   25356.29687962  .00000111  00000+0  15664-3 0  9999", "line2": "2 02807  89.6731 353.6991 0022163  88.6181 283.6624 13.50724279884051"}}, "geometry": {"type": "Point", "coordinates": [173.78131444098562, -16.305020483361993]}}, {"type": "Feature", "properties": {"norad_id": 2965, "name": "OPS 4947 (TRANSIT 17)", "group": "nnss", "lat": -1.5606040211976346, "lon": 23.65494132132813, "alt_km": 1093.9343864584926, "timestamp": "2025-12-22T16:55:17.731499+00:00", "meta": {"OBJECT_NAME": "OPS 4947 (TRANSIT 17)", "OBJECT_ID": "1967-092A", "EPOCH": "2025-12-22T03:02:10.193568", "MEAN_MOTION": 13.53456022, "ECCENTRICITY": 0.00468609, "INCLINATION": 89.2487, "RA_OF_ASC_NODE": 23.7195, "ARG_OF_PERICENTER": 206.585, "MEAN_ANOMALY": 214.414, "EPHEMERIS_TYPE": 0, "CLASSIFICATION_TYPE": "U", "NORAD_CAT_ID": 2965, "ELEMENT_SET_NO": 999, "REV_AT_EPOCH": 87224, "BSTAR": 0.00020254202, "MEAN_MOTION_DOT": 1.48e-06, "MEAN_MOTION_DDOT": 0}, "tle": {"line1": "1 02965U 67092A   25356.12650687  .00000148  00000+0  20254-3 0  9990", "line2": "2 02965  89.2487  23.7195 0046860 206.5850 214.4140 13.53456022872249"}}, "geometry": {"type": "Point", "coordinates": [23.65494132132813, -1.5606040211976346]}}, {"type": "Feature", "properties": {"norad_id": 3133, "name": "OPS 7034 (TRANSIT 18)", "group": "nnss", "lat": 79.06940119722083, "lon": -86.4804024118629, "alt_km": 1032.2616393937524, "timestamp": "2025-12-22T16:55:17.731512+00:00", "meta": {"OBJECT_NAME": "OPS 7034 (TRANSIT 18)", "OBJECT_ID": "1968-012A", "EPOCH": "2025-12-22T06:25:37.347168", "MEAN_MOTION": 13.51567891, "ECCENTRICITY": 0.00747519, "INCLINATION": 90.0285, "RA_OF_ASC_NODE": 273.666, "ARG_OF_PERICENTER": 141.7172, "MEAN_ANOMALY": 331.7744, "EPHEMERIS_TYPE": 0, "CLASSIFICATION_TYPE": "U", "NORAD_CAT_ID": 3133, "ELEMENT_SET_NO": 999, "REV_AT_EPOCH": 57047, "BSTAR": 0.0002044581, "MEAN_MOTION_DOT": 1.46e-06, "MEAN_MOTION_DDOT": 0}, "tle": {"line1": "1 03133U 68012A   25356.26779337  .00000146  00000+0  20446-3 0  9991", "line2": "2 03133  90.0285 273.6660 0074751 141.7172 331.7744 13.51567891570471"}}, "geometry": {"type": "Point", "coordinates": [-86.4804024118629, 79.06940119722083]}}, {"type": "Feature", "properties": {"norad_id": 4507, "name": "NNSS 19 (TRANSIT 19)", "group": "nnss", "lat": 43.51330501262036, "lon": -125.46418329861125, "alt_km": 1159.0876391423753, "timestamp": "2025-12-22T16:55:17.731525+00:00", "meta": {"OBJECT_NAME": "NNSS 19 (TRANSIT 19)", "OBJECT_ID": "1970-067A", "EPOCH": "2025-12-22T04:15:50.307840", "MEAN_MOTION": 13.51317016, "ECCENTRICITY": 0.01702227, "INCLINATION": 90.005, "RA_OF_ASC_NODE": 234.5403, "ARG_OF_PERICENTER": 265.7563, "MEAN_ANOMALY": 92.4121, "EPHEMERIS_TYPE": 0, "CLASSIFICATION_TYPE": "U", "NORAD_CAT_ID": 4507, "ELEMENT_SET_NO": 999, "REV_AT_EPOCH": 72349, "BSTAR": 0.00016328627, "MEAN_MOTION_DOT": 1.24e-06, "MEAN_MOTION_DDOT": 0}, "tle": {"line1": "1 04507U 70067A   25356.17766560  .00000124  00000+0  16329-3 0  9995", "line2": "2 04507  90.0050 234.5403 0170222 265.7563  92.4121 13.51317016723493"}}, "geometry": {"type": "Point", "coordinates": [-125.46418329861125, 43.51330501262036]}}, {"type": "Feature", "properties": {"norad_id": 6909, "name": "NNSS 20 (TRANSIT 20)", "group": "nnss", "lat": 62.499529798840186, "lon": 74.6284689325745, "alt_km": 944.9396519053971, "timestamp": "2025-12-22T16:55:17.731536+00:00", "meta": {"OBJECT_NAME": "NNSS 20 (TRANSIT 20)", "OBJECT_ID": "1973-081A", "EPOCH": "2025-12-22T02:21:26.013600", "MEAN_MOTION": 13.71439096, "ECCENTRICITY": 0.0156327, "INCLINATION": 89.8562, "RA_OF_ASC_NODE": 254.914, "ARG_OF_PERICENTER": 50.5929, "MEAN_ANOMALY": 310.8956, "EPHEMERIS_TYPE": 0, "CLASSIFICATION_TYPE": "U", "NORAD_CAT_ID": 6909, "ELEMENT_SET_NO": 999, "REV_AT_EPOCH": 80489, "BSTAR": 0.00027894557, "MEAN_MOTION_DOT": 2.85e-06, "MEAN_MOTION_DDOT": 0}, "tle": {"line1": "1 06909U 73081A   25356.09821775  .00000285  00000+0  27895-3 0  9991", "line2": "2 06909  89.8562 254.9140 0156327  50.5929 310.8956 13.71439096804897"}}, "geometry": {"type": "Point", "coordinates": [74.6284689325745, 62.499529798840186]}}, {"type": "Feature", "properties": {"norad_id": 10457, "name": "TRANSAT", "group": "nnss", "lat": -37.65137507798583, "lon": 77.97248599735701, "alt_km": 1101.075061757413, "timestamp": "2025-12-22T16:55:17.731547+00:00", "meta": {"OBJECT_NAME": "TRANSAT", "OBJECT_ID": "1977-106A", "EPOCH": "2025-12-22T04:43:59.924640", "MEAN_MOTION": 13.48945163, "ECCENTRICITY": 0.0026228, "INCLINATION": 89.6479, "RA_OF_ASC_NODE": 78.2623, "ARG_OF_PERICENTER": 162.6687, "MEAN_ANOMALY": 214.9455, "EPHEMERIS_TYPE": 0, "CLASSIFICATION_TYPE": "U", "NORAD_CAT_ID": 10457, "ELEMENT_SET_NO": 999, "REV_AT_EPOCH": 36871, "BSTAR": 0.00016513241, "MEAN_MOTION_DOT": 1.14e-06, "MEAN_MOTION_DDOT": 0}, "tle": {"line1": "1 10457U 77106A   25356.19722135  .00000114  00000+0  16513-3 0  9993", "line2": "2 10457  89.6479  78.2623 0026228 162.6687 214.9455 13.48945163368715"}}, "geometry": {"type": "Point", "coordinates": [77.97248599735701, -37.65137507798583]}}, {"type": "Feature", "properties": {"norad_id": 12458, "name": "NOVA 1", "group": "nnss", "lat": 24.135735311225897, "lon": 91.31042890065542, "alt_km": 1164.7461039261689, "timestamp": "2025-12-22T16:55:17.731558+00:00", "meta": {"OBJECT_NAME": "NOVA 1", "OBJECT_ID": "1981-044A", "EPOCH": "2025-12-22T05:59:49.105824", "MEAN_MOTION": 13.232795, "ECCENTRICITY": 0.00158229, "INCLINATION": 89.8526, "RA_OF_ASC_NODE": 91.2508, "ARG_OF_PERICENTER": 80.6324, "MEAN_ANOMALY": 296.5588, "EPHEMERIS_TYPE": 0, "CLASSIFICATION_TYPE": "U", "NORAD_CAT_ID": 12458, "ELEMENT_SET_NO": 999, "REV_AT_EPOCH": 15312, "BSTAR": 0.00014988057, "MEAN_MOTION_DOT": 7.3e-07, "MEAN_MOTION_DDOT": 0}, "tle": {"line1": "1 12458U 81044A   25356.24987391  .00000073  00000+0  14988-3 0  9993", "line2": "2 12458  89.8526  91.2508 0015822  80.6324 296.5588 13.23279500153123"}}, "geometry": {"type": "Point", "coordinates": [91.31042890065542, 24.135735311225897]}}, {"type": "Feature", "properties": {"norad_id": 15362, "name": "NOVA 3", "group": "nnss", "lat": -68.45247467269402, "lon": -99.65699323328876, "alt_km": 1167.412899202639, "timestamp": "2025-12-22T16:55:17.731569+00:00", "meta": {"OBJECT_NAME": "NOVA 3", "OBJECT_ID": "1984-110A", "EPOCH": "2025-12-22T06:53:41.383392", "MEAN_MOTION": 13.23045723, "ECCENTRICITY": 0.00299536, "INCLINATION": 90.1219, "RA_OF_ASC_NODE": 80.647, "ARG_OF_PERICENTER": 304.4624, "MEAN_ANOMALY": 115.4974, "EPHEMERIS_TYPE": 0, "CLASSIFICATION_TYPE": "U", "NORAD_CAT_ID": 15362, "ELEMENT_SET_NO": 999, "REV_AT_EPOCH": 98825, "BSTAR": 0.0002233324, "MEAN_MOTION_DOT": 1.02e-06, "MEAN_MOTION_DDOT": 0}, "tle": {"line1": "1 15362U 84110A   25356.28728453  .00000102  00000+0  22333-3 0  9999", "line2": "2 15362  90.1219  80.6470 0029953 304.4624 115.4974 13.23045723988250"}}, "geometry": {"type": "Point", "coordinates": [-99.65699323328876, -68.45247467269402]}}, {"type": "Feature", "properties": {"norad_id": 15935, "name": "OSCAR 30", "group": "nnss", "lat": 77.06899559556416, "lon": 99.28924857959676, "alt_km": 998.0849833113034, "timestamp": "2025-12-22T16:55:17.731580+00:00", "meta": {"OBJECT_NAME": "OSCAR 30", "OBJECT_ID": "1985-066A", "EPOCH": "2025-12-22T05:54:10.715040", "MEAN_MOTION": 13.36079774, "ECCENTRICITY": 0.01690798, "INCLINATION": 90.1654, "RA_OF_ASC_NODE": 100.0026, "ARG_OF_PERICENTER": 57.3573, "MEAN_ANOMALY": 332.0824, "EPHEMERIS_TYPE": 0, "CLASSIFICATION_TYPE": "U", "NORAD_CAT_ID": 15935, "ELEMENT_SET_NO": 999, "REV_AT_EPOCH": 96580, "BSTAR": 0.00017103035, "MEAN_MOTION_DOT": 1.05e-06, "MEAN_MOTION_DDOT": 0}, "tle": {"line1": "1 15935U 85066A   25356.24595735  .00000105  00000+0  17103-3 0  9999", "line2": "2 15935  90.1654 100.0026 0169079  57.3573 332.0824 13.36079774965808"}}, "geometry": {"type": "Point", "coordinates": [99.28924857959676, 77.06899559556416]}}, {"type": "Feature", "properties": {"norad_id": 15936, "name": "OSCAR 24", "group": "nnss", "lat": 31.324982863350396, "lon": -87.40928610917871, "alt_km": 1111.8134821045905, "timestamp": "2025-12-22T16:55:17.731590+00:00", "meta": {"OBJECT_NAME": "OSCAR 24", "OBJECT_ID": "1985-066B", "EPOCH": "2025-12-22T05:41:31.379136", "MEAN_MOTION": 13.359371, "ECCENTRICITY": 0.01702147, "INCLINATION": 90.1791, "RA_OF_ASC_NODE": 92.4734, "ARG_OF_PERICENTER": 63.8209, "MEAN_ANOMALY": 353.8432, "EPHEMERIS_TYPE": 0, "CLASSIFICATION_TYPE": "U", "NORAD_CAT_ID": 15936, "ELEMENT_SET_NO": 999, "REV_AT_EPOCH": 96770, "BSTAR": 0.00016124907, "MEAN_MOTION_DOT": 9.9e-07, "MEAN_MOTION_DDOT": 0}, "tle": {"line1": "1 15936U 85066B   25356.23716874  .00000099  00000+0  16125-3 0  9993", "line2": "2 15936  90.1791  92.4734 0170214  63.8209 353.8432 13.35937100967704"}}, "geometry": {"type": "Point", "coordinates": [-87.40928610917871, 31.324982863350396]}}]}